[
{"id":66,"noradId":68542,"name":"STARLINK-37326","tle1":"1 68542U 26070A   26100.50002315 -.01124351  40098-3 -24324-2 0  9995","tle2":"2 68542  53.1590 225.4236 0000921  72.5347  95.1759 15.97734888  2495","tleEpoch":null,"intlDesignator":"2026-070A","objectType":"PAY","opsStatusCode":"+","owner":"US","launchDate":"2026-04-02T00:00:00.000+00:00","launchSiteCode":"AFETR","decayDate":null,"period":89.84000000000000341,"inclination":53.15999999999999659,"apogee":267.0,"perigee":266.0,"radarCrossSection":null,"satcatUpdatedAt":"2026-04-10T21:25:56.713+00:00","spxId":null,"spxVersion":null,"launchId":"63aa7636-d2b7-457f-a3e6-27e564e42941","agencyId":null,"updatedAt":"2026-04-10T21:25:56.713+00:00"},
{"id":67,"noradId":68543,"name":"STARLINK-36308","tle1":"1 68543U 26070B   26100.50002315 -.01119958  39853-3 -24102-2 0  9994","tle2":"2 68543  53.1588 225.4190 0000922  73.4835  96.1703 15.97828327  2442","tleEpoch":null,"intlDesignator":"2026-070B","objectType":"PAY","opsStatusCode":"+","owner":"US","launchDate":"2026-04-02T00:00:00.000+00:00","launchSiteCode":"AFETR","decayDate":null,"period":89.8299999999999983,"inclination":53.15999999999999659,"apogee":266.0,"perigee":266.0,"radarCrossSection":null,"satcatUpdatedAt":"2026-04-10T21:25:56.714+00:00","spxId":null,"spxVersion":null,"launchId":"63aa7636-d2b7-457f-a3e6-27e564e42941","agencyId":null,"updatedAt":"2026-04-10T21:25:56.714+00:00"},
{"id":68,"noradId":68544,"name":"STARLINK-37263","tle1":"1 68544U 26070C   26100.50002315 -.01117825  39793-3 -23808-2 0  9991","tle2":"2 68544  53.1586 225.4117 0000867  69.8647 103.5847 15.98014260  2499","tleEpoch":null,"intlDesignator":"2026-070C","objectType":"PAY","opsStatusCode":"+","owner":"US","launchDate":"2026-04-02T00:00:00.000+00:00","launchSiteCode":"AFETR","decayDate":null,"period":89.81999999999999317,"inclination":53.15999999999999659,"apogee":266.0,"perigee":265.0,"radarCrossSection":null,"satcatUpdatedAt":"2026-04-10T21:25:56.715+00:00","spxId":null,"spxVersion":null,"launchId":"63aa7636-d2b7-457f-a3e6-27e564e42941","agencyId":null,"updatedAt":"2026-04-10T21:25:56.715+00:00"},
{"id":69,"noradId":68545,"name":"STARLINK-37289","tle1":"1 68545U 26070D   26100.50002315 -.01118700  39807-3 -23963-2 0  9993","tle2":"2 68545  53.1583 225.4164 0000896  71.0588 100.0702 15.97912267  2495","tleEpoch":null,"intlDesignator":"2026-070D","objectType":"PAY","opsStatusCode":"+","owner":"US","launchDate":"2026-04-02T00:00:00.000+00:00","launchSiteCode":"AFETR","decayDate":null,"period":89.8299999999999983,"inclination":53.15999999999999659,"apogee":266.0,"perigee":266.0,"radarCrossSection":null,"satcatUpdatedAt":"2026-04-10T21:25:56.716+00:00","spxId":null,"spxVersion":null,"launchId":"63aa7636-d2b7-457f-a3e6-27e564e42941","agencyId":null,"updatedAt":"2026-04-10T21:25:56.716+00:00"},
{"id":70,"noradId":68546,"name":"STARLINK-37290","tle1":"1 68546U 26070E   26100.50002315 -.01123846  40229-3 -23793-2 0  9992","tle2":"2 68546  53.1589 225.4064 0000898  67.7225 108.1151 15.98122834  2494","tleEpoch":null,"intlDesignator":"2026-070E","objectType":"PAY","opsStatusCode":"+","owner":"US","launchDate":"2026-04-02T00:00:00.000+00:00","launchSiteCode":"AFETR","decayDate":null,"period":89.81000000000000227,"inclination":53.15999999999999659,"apogee":266.0,"perigee":265.0,"radarCrossSection":null,"satcatUpdatedAt":"2026-04-10T21:25:56.717+00:00","spxId":null,"spxVersion":null,"launchId":"63aa7636-d2b7-457f-a3e6-27e564e42941","agencyId":null,"updatedAt":"2026-04-10T21:25:56.717+00:00"},
{"id":71,"noradId":68547,"name":"STARLINK-37245","tle1":"1 68547U 26070F   26100.50002315 -.01127827  40575-3 -23606-2 0  9993","tle2":"2 68547  53.1588 225.3973 0001012  68.3392 111.9527 15.98327343  2494","tleEpoch":null,"intlDesignator":"2026-070F","objectType":"PAY","opsStatusCode":"+","owner":"US","launchDate":"2026-04-02T00:00:00.000+00:00","launchSiteCode":"AFETR","decayDate":null,"period":89.79999999999999716,"inclination":53.15999999999999659,"apogee":265.0,"perigee":264.0,"radarCrossSection":null,"satcatUpdatedAt":"2026-04-10T21:25:56.717+00:00","spxId":null,"spxVersion":null,"launchId":"63aa7636-d2b7-457f-a3e6-27e564e42941","agencyId":null,"updatedAt":"2026-04-10T21:25:56.717+00:00"},
{"id":72,"noradId":68548,"name":"STARLINK-37145","tle1":"1 68548U 26070G   26100.50002315 -.01126283  40427-3 -23720-2 0  9992","tle2":"2 68548  53.1586 225.4027 0000937  68.3201 109.4488 15.98217206  2492","tleEpoch":null,"intlDesignator":"2026-070G","objectType":"PAY","opsStatusCode":"+","owner":"US","launchDate":"2026-04-02T00:00:00.000+00:00","launchSiteCode":"AFETR","decayDate":null,"period":89.81000000000000227,"inclination":53.15999999999999659,"apogee":266.0,"perigee":265.0,"radarCrossSection":null,"satcatUpdatedAt":"2026-04-10T21:25:56.718+00:00","spxId":null,"spxVersion":null,"launchId":"63aa7636-d2b7-457f-a3e6-27e564e42941","agencyId":null,"updatedAt":"2026-04-10T21:25:56.718+00:00"},
{"id":73,"noradId":68549,"name":"STARLINK-36204","tle1":"1 68549U 26070H   26100.50002315 -.01121846  40228-3 -23348-2 0  9998","tle2":"2 68549  53.1589 225.3926 0000878  71.9806 110.6198 15.98428351  2440","tleEpoch":null,"intlDesignator":"2026-070H","objectType":"PAY","opsStatusCode":"+","owner":"US","launchDate":"2026-04-02T00:00:00.000+00:00","launchSiteCode":"AFETR","decayDate":null,"period":89.79999999999999716,"inclination":53.15999999999999659,"apogee":266.0,"perigee":264.0,"radarCrossSection":null,"satcatUpdatedAt":"2026-04-10T21:25:56.719+00:00","spxId":null,"spxVersion":null,"launchId":"63aa7636-d2b7-457f-a3e6-27e564e42941","agencyId":null,"updatedAt":"2026-04-10T21:25:56.719+00:00"},
{"id":74,"noradId":68550,"name":"STARLINK-36304","tle1":"1 68550U 26070J   26100.50002315 -.01126827  40645-3 -23171-2 0  9991","tle2":"2 68550  53.1587 225.3825 0000878  70.2003 117.1921 15.98642977  2447","tleEpoch":null,"intlDesignator":"2026-070J","objectType":"PAY","opsStatusCode":"+","owner":"US","launchDate":"2026-04-02T00:00:00.000+00:00","launchSiteCode":"AFETR","decayDate":null,"period":89.76999999999999603,"inclination":53.15999999999999659,"apogee":264.0,"perigee":263.0,"radarCrossSection":null,"satcatUpdatedAt":"2026-04-10T21:25:56.723+00:00","spxId":null,"spxVersion":null,"launchId":"63aa7636-d2b7-457f-a3e6-27e564e42941","agencyId":null,"updatedAt":"2026-04-10T21:25:56.723+00:00"},
{"id":75,"noradId":68551,"name":"STARLINK-37288","tle1":"1 68551U 26070K   26100.50002315 -.01129666  40873-3 -23103-2 0  9994","tle2":"2 68551  53.1587 225.3784 0000886  68.2159 121.1741 15.98740607  2499","tleEpoch":null,"intlDesignator":"2026-070K","objectType":"PAY","opsStatusCode":"+","owner":"US","launchDate":"2026-04-02T00:00:00.000+00:00","launchSiteCode":"AFETR","decayDate":null,"period":89.76999999999999603,"inclination":53.15999999999999659,"apogee":263.0,"perigee":263.0,"radarCrossSection":null,"satcatUpdatedAt":"2026-04-10T21:25:56.724+00:00","spxId":null,"spxVersion":null,"launchId":"63aa7636-d2b7-457f-a3e6-27e564e42941","agencyId":null,"updatedAt":"2026-04-10T21:25:56.724+00:00"},
{"id":76,"noradId":68552,"name":"STARLINK-37295","tle1":"1 68552U 26070L   26100.50002315 -.01133478  41038-3 -23439-2 0  9997","tle2":"2 68552  53.1585 225.3872 0000836  70.1798 115.0383 15.98544632  2496","tleEpoch":null,"intlDesignator":"2026-070L","objectType":"PAY","opsStatusCode":"+","owner":"US","launchDate":"2026-04-02T00:00:00.000+00:00","launchSiteCode":"AFETR","decayDate":null,"period":89.79000000000000626,"inclination":53.15999999999999659,"apogee":264.0,"perigee":264.0,"radarCrossSection":null,"satcatUpdatedAt":"2026-04-10T21:25:56.725+00:00","spxId":null,"spxVersion":null,"launchId":"63aa7636-d2b7-457f-a3e6-27e564e42941","agencyId":null,"updatedAt":"2026-04-10T21:25:56.725+00:00"},
{"id":77,"noradId":68553,"name":"STARLINK-37254","tle1":"1 68553U 26070M   26100.50002315 -.01144736  41972-3 -23107-2 0  9996","tle2":"2 68553  53.1584 225.3673 0000877  72.2580 122.4288 15.98975239  2499","tleEpoch":null,"intlDesignator":"2026-070M","objectType":"PAY","opsStatusCode":"+","owner":"US","launchDate":"2026-04-02T00:00:00.000+00:00","launchSiteCode":"AFETR","decayDate":null,"period":89.76000000000000511,"inclination":53.15999999999999659,"apogee":263.0,"perigee":263.0,"radarCrossSection":null,"satcatUpdatedAt":"2026-04-10T21:25:56.725+00:00","spxId":null,"spxVersion":null,"launchId":"63aa7636-d2b7-457f-a3e6-27e564e42941","agencyId":null,"updatedAt":"2026-04-10T21:25:56.725+00:00"},
{"id":78,"noradId":68554,"name":"STARLINK-37255","tle1":"1 68554U 26070N   26100.50002315 -.01140936  41762-3 -22906-2 0  9998","tle2":"2 68554  53.1585 225.3633 0000920  67.6146 129.1189 15.99070621  2498","tleEpoch":null,"intlDesignator":"2026-070N","objectType":"PAY","opsStatusCode":"+","owner":"US","launchDate":"2026-04-02T00:00:00.000+00:00","launchSiteCode":"AFETR","decayDate":null,"period":89.76000000000000511,"inclination":53.15999999999999659,"apogee":263.0,"perigee":262.0,"radarCrossSection":null,"satcatUpdatedAt":"2026-04-10T21:25:56.726+00:00","spxId":null,"spxVersion":null,"launchId":"63aa7636-d2b7-457f-a3e6-27e564e42941","agencyId":null,"updatedAt":"2026-04-10T21:25:56.726+00:00"},
{"id":79,"noradId":68555,"name":"STARLINK-37146","tle1":"1 68555U 26070P   26100.50002315 -.01139427  41570-3 -23146-2 0  9996","tle2":"2 68555  53.1587 225.3727 0000866  69.5710 122.5846 15.98862420  2494","tleEpoch":null,"intlDesignator":"2026-070P","objectType":"PAY","opsStatusCode":"+","owner":"US","launchDate":"2026-04-02T00:00:00.000+00:00","launchSiteCode":"AFETR","decayDate":null,"period":89.76999999999999603,"inclination":53.15999999999999659,"apogee":263.0,"perigee":263.0,"radarCrossSection":null,"satcatUpdatedAt":"2026-04-10T21:25:56.726+00:00","spxId":null,"spxVersion":null,"launchId":"63aa7636-d2b7-457f-a3e6-27e564e42941","agencyId":null,"updatedAt":"2026-04-10T21:25:56.727+00:00"},
{"id":97,"noradId":68540,"name":"SWC-1","tle1":"1 68540U 26069C   26094.03836202 -.00012113  68892-4  00000+0 0  9996","tle2":"2 68540  28.3174 359.0866 8436800  78.4879  25.8197  1.02608558    39","tleEpoch":null,"intlDesignator":"2026-069C","objectType":"PAY","opsStatusCode":"+","owner":"SAUD","launchDate":"2026-04-01T00:00:00.000+00:00","launchSiteCode":"AFETR","decayDate":null,"period":1403.3900000000001,"inclination":28.32000000000000028,"apogee":70175.0,"perigee":113.0,"radarCrossSection":null,"satcatUpdatedAt":"2026-04-10T21:25:56.712+00:00","spxId":null,"spxVersion":null,"launchId":"41699701-2ef4-4b0c-ac9d-6757820cde87","agencyId":null,"updatedAt":"2026-04-10T21:25:56.712+00:00"},
{"id":98,"noradId":68541,"name":"K-RADCUBE","tle1":"1 68541U 26069D   26092.67815972 -.00078411  19505-5 -17218-4 0  9992","tle2":"2 68541  28.3341 359.8703 8450105  77.6642 243.1767  1.02517944    33","tleEpoch":null,"intlDesignator":"2026-069D","objectType":"PAY","opsStatusCode":"+","owner":"SKOR","launchDate":"2026-04-01T00:00:00.000+00:00","launchSiteCode":"AFETR","decayDate":null,"period":1404.630000000000109,"inclination":28.3299999999999983,"apogee":70276.0,"perigee":61.0,"radarCrossSection":null,"satcatUpdatedAt":"2026-04-10T21:25:56.712+00:00","spxId":null,"spxVersion":null,"launchId":"41699701-2ef4-4b0c-ac9d-6757820cde87","agencyId":null,"updatedAt":"2026-04-10T21:25:56.712+00:00"}]
