[{"OBJECT_NAME":"SWC-1","OBJECT_ID":"2026-069C","EPOCH":"2026-04-04T00:55:14.478528","MEAN_MOTION":1.02608558,"ECCENTRICITY":0.84368008,"INCLINATION":28.3174,"RA_OF_ASC_NODE":359.0866,"ARG_OF_PERICENTER":78.4879,"MEAN_ANOMALY":25.8197,"EPHEMERIS_TYPE":0,"CLASSIFICATION_TYPE":"U","NORAD_CAT_ID":68540,"ELEMENT_SET_NO":999,"REV_AT_EPOCH":3,"BSTAR":0,"MEAN_MOTION_DOT":-0.00012113,"MEAN_MOTION_DDOT":6.8891712e-5},{"OBJECT_NAME":"K-RADCUBE","OBJECT_ID":"2026-069D","EPOCH":"2026-04-02T16:16:32.999808","MEAN_MOTION":1.02517944,"ECCENTRICITY":0.8450105,"INCLINATION":28.3341,"RA_OF_ASC_NODE":359.8703,"ARG_OF_PERICENTER":77.6642,"MEAN_ANOMALY":243.1767,"EPHEMERIS_TYPE":0,"CLASSIFICATION_TYPE":"U","NORAD_CAT_ID":68541,"ELEMENT_SET_NO":999,"REV_AT_EPOCH":3,"BSTAR":-1.7218e-5,"MEAN_MOTION_DOT":-0.00078411,"MEAN_MOTION_DDOT":1.9505e-6},{"OBJECT_NAME":"STARLINK-37326","OBJECT_ID":"2026-070A","EPOCH":"2026-04-10T12:00:02.000160","MEAN_MOTION":15.97734888,"ECCENTRICITY":9.21e-5,"INCLINATION":53.159,"RA_OF_ASC_NODE":225.4236,"ARG_OF_PERICENTER":72.5347,"MEAN_ANOMALY":95.1759,"EPHEMERIS_TYPE":0,"CLASSIFICATION_TYPE":"U","NORAD_CAT_ID":68542,"ELEMENT_SET_NO":999,"REV_AT_EPOCH":249,"BSTAR":-0.0024324,"MEAN_MOTION_DOT":-0.01124351,"MEAN_MOTION_DDOT":0.00040098},{"OBJECT_NAME":"STARLINK-36308","OBJECT_ID":"2026-070B","EPOCH":"2026-04-10T12:00:02.000160","MEAN_MOTION":15.97828327,"ECCENTRICITY":9.22e-5,"INCLINATION":53.1588,"RA_OF_ASC_NODE":225.419,"ARG_OF_PERICENTER":73.4835,"MEAN_ANOMALY":96.1703,"EPHEMERIS_TYPE":0,"CLASSIFICATION_TYPE":"U","NORAD_CAT_ID":68543,"ELEMENT_SET_NO":999,"REV_AT_EPOCH":244,"BSTAR":-0.0024102,"MEAN_MOTION_DOT":-0.01119958,"MEAN_MOTION_DDOT":0.00039853},{"OBJECT_NAME":"STARLINK-37263","OBJECT_ID":"2026-070C","EPOCH":"2026-04-10T12:00:02.000160","MEAN_MOTION":15.9801426,"ECCENTRICITY":8.67e-5,"INCLINATION":53.1586,"RA_OF_ASC_NODE":225.4117,"ARG_OF_PERICENTER":69.8647,"MEAN_ANOMALY":103.5847,"EPHEMERIS_TYPE":0,"CLASSIFICATION_TYPE":"U","NORAD_CAT_ID":68544,"ELEMENT_SET_NO":999,"REV_AT_EPOCH":249,"BSTAR":-0.0023808,"MEAN_MOTION_DOT":-0.01117825,"MEAN_MOTION_DDOT":0.00039793},{"OBJECT_NAME":"STARLINK-37289","OBJECT_ID":"2026-070D","EPOCH":"2026-04-10T12:00:02.000160","MEAN_MOTION":15.97912267,"ECCENTRICITY":8.96e-5,"INCLINATION":53.1583,"RA_OF_ASC_NODE":225.4164,"ARG_OF_PERICENTER":71.0588,"MEAN_ANOMALY":100.0702,"EPHEMERIS_TYPE":0,"CLASSIFICATION_TYPE":"U","NORAD_CAT_ID":68545,"ELEMENT_SET_NO":999,"REV_AT_EPOCH":249,"BSTAR":-0.0023963,"MEAN_MOTION_DOT":-0.011187,"MEAN_MOTION_DDOT":0.00039807},{"OBJECT_NAME":"STARLINK-37290","OBJECT_ID":"2026-070E","EPOCH":"2026-04-10T12:00:02.000160","MEAN_MOTION":15.98122834,"ECCENTRICITY":8.98e-5,"INCLINATION":53.1589,"RA_OF_ASC_NODE":225.4064,"ARG_OF_PERICENTER":67.7225,"MEAN_ANOMALY":108.1151,"EPHEMERIS_TYPE":0,"CLASSIFICATION_TYPE":"U","NORAD_CAT_ID":68546,"ELEMENT_SET_NO":999,"REV_AT_EPOCH":249,"BSTAR":-0.0023793,"MEAN_MOTION_DOT":-0.01123846,"MEAN_MOTION_DDOT":0.00040229},{"OBJECT_NAME":"STARLINK-37245","OBJECT_ID":"2026-070F","EPOCH":"2026-04-10T12:00:02.000160","MEAN_MOTION":15.98327343,"ECCENTRICITY":0.0001012,"INCLINATION":53.1588,"RA_OF_ASC_NODE":225.3973,"ARG_OF_PERICENTER":68.3392,"MEAN_ANOMALY":111.9527,"EPHEMERIS_TYPE":0,"CLASSIFICATION_TYPE":"U","NORAD_CAT_ID":68547,"ELEMENT_SET_NO":999,"REV_AT_EPOCH":249,"BSTAR":-0.0023606,"MEAN_MOTION_DOT":-0.01127827,"MEAN_MOTION_DDOT":0.00040575},{"OBJECT_NAME":"STARLINK-37145","OBJECT_ID":"2026-070G","EPOCH":"2026-04-10T12:00:02.000160","MEAN_MOTION":15.98217206,"ECCENTRICITY":9.37e-5,"INCLINATION":53.1586,"RA_OF_ASC_NODE":225.4027,"ARG_OF_PERICENTER":68.3201,"MEAN_ANOMALY":109.4488,"EPHEMERIS_TYPE":0,"CLASSIFICATION_TYPE":"U","NORAD_CAT_ID":68548,"ELEMENT_SET_NO":999,"REV_AT_EPOCH":249,"BSTAR":-0.002372,"MEAN_MOTION_DOT":-0.01126283,"MEAN_MOTION_DDOT":0.00040427},{"OBJECT_NAME":"STARLINK-36204","OBJECT_ID":"2026-070H","EPOCH":"2026-04-10T12:00:02.000160","MEAN_MOTION":15.98428351,"ECCENTRICITY":8.78e-5,"INCLINATION":53.1589,"RA_OF_ASC_NODE":225.3926,"ARG_OF_PERICENTER":71.9806,"MEAN_ANOMALY":110.6198,"EPHEMERIS_TYPE":0,"CLASSIFICATION_TYPE":"U","NORAD_CAT_ID":68549,"ELEMENT_SET_NO":999,"REV_AT_EPOCH":244,"BSTAR":-0.0023348,"MEAN_MOTION_DOT":-0.01121846,"MEAN_MOTION_DDOT":0.00040228},{"OBJECT_NAME":"STARLINK-36304","OBJECT_ID":"2026-070J","EPOCH":"2026-04-10T12:00:02.000160","MEAN_MOTION":15.98642977,"ECCENTRICITY":8.78e-5,"INCLINATION":53.1587,"RA_OF_ASC_NODE":225.3825,"ARG_OF_PERICENTER":70.2003,"MEAN_ANOMALY":117.1921,"EPHEMERIS_TYPE":0,"CLASSIFICATION_TYPE":"U","NORAD_CAT_ID":68550,"ELEMENT_SET_NO":999,"REV_AT_EPOCH":244,"BSTAR":-0.0023171,"MEAN_MOTION_DOT":-0.01126827,"MEAN_MOTION_DDOT":0.00040645},{"OBJECT_NAME":"STARLINK-37288","OBJECT_ID":"2026-070K","EPOCH":"2026-04-10T12:00:02.000160","MEAN_MOTION":15.98740607,"ECCENTRICITY":8.86e-5,"INCLINATION":53.1587,"RA_OF_ASC_NODE":225.3784,"ARG_OF_PERICENTER":68.2159,"MEAN_ANOMALY":121.1741,"EPHEMERIS_TYPE":0,"CLASSIFICATION_TYPE":"U","NORAD_CAT_ID":68551,"ELEMENT_SET_NO":999,"REV_AT_EPOCH":249,"BSTAR":-0.0023103,"MEAN_MOTION_DOT":-0.01129666,"MEAN_MOTION_DDOT":0.00040873},{"OBJECT_NAME":"STARLINK-37295","OBJECT_ID":"2026-070L","EPOCH":"2026-04-10T12:00:02.000160","MEAN_MOTION":15.98544632,"ECCENTRICITY":8.36e-5,"INCLINATION":53.1585,"RA_OF_ASC_NODE":225.3872,"ARG_OF_PERICENTER":70.1798,"MEAN_ANOMALY":115.0383,"EPHEMERIS_TYPE":0,"CLASSIFICATION_TYPE":"U","NORAD_CAT_ID":68552,"ELEMENT_SET_NO":999,"REV_AT_EPOCH":249,"BSTAR":-0.0023439,"MEAN_MOTION_DOT":-0.01133478,"MEAN_MOTION_DDOT":0.00041038},{"OBJECT_NAME":"STARLINK-37254","OBJECT_ID":"2026-070M","EPOCH":"2026-04-10T12:00:02.000160","MEAN_MOTION":15.98975239,"ECCENTRICITY":8.77e-5,"INCLINATION":53.1584,"RA_OF_ASC_NODE":225.3673,"ARG_OF_PERICENTER":72.258,"MEAN_ANOMALY":122.4288,"EPHEMERIS_TYPE":0,"CLASSIFICATION_TYPE":"U","NORAD_CAT_ID":68553,"ELEMENT_SET_NO":999,"REV_AT_EPOCH":249,"BSTAR":-0.0023107,"MEAN_MOTION_DOT":-0.01144736,"MEAN_MOTION_DDOT":0.00041972},{"OBJECT_NAME":"STARLINK-37255","OBJECT_ID":"2026-070N","EPOCH":"2026-04-10T12:00:02.000160","MEAN_MOTION":15.99070621,"ECCENTRICITY":9.2e-5,"INCLINATION":53.1585,"RA_OF_ASC_NODE":225.3633,"ARG_OF_PERICENTER":67.6146,"MEAN_ANOMALY":129.1189,"EPHEMERIS_TYPE":0,"CLASSIFICATION_TYPE":"U","NORAD_CAT_ID":68554,"ELEMENT_SET_NO":999,"REV_AT_EPOCH":249,"BSTAR":-0.0022906,"MEAN_MOTION_DOT":-0.01140936,"MEAN_MOTION_DDOT":0.00041762},{"OBJECT_NAME":"STARLINK-37146","OBJECT_ID":"2026-070P","EPOCH":"2026-04-10T12:00:02.000160","MEAN_MOTION":15.9886242,"ECCENTRICITY":8.66e-5,"INCLINATION":53.1587,"RA_OF_ASC_NODE":225.3727,"ARG_OF_PERICENTER":69.571,"MEAN_ANOMALY":122.5846,"EPHEMERIS_TYPE":0,"CLASSIFICATION_TYPE":"U","NORAD_CAT_ID":68555,"ELEMENT_SET_NO":999,"REV_AT_EPOCH":249,"BSTAR":-0.0023146,"MEAN_MOTION_DOT":-0.01139427,"MEAN_MOTION_DDOT":0.0004157}]
